NORAD_CAT_ID,OBJECT_NAME,OBJECT_TYPE,EPOCH,MEAN_MOTION,ECCENTRICITY,INCLINATION,RA_OF_ASC_NODE,ARG_OF_PERICENTER,MEAN_ANOMALY,BSTAR,MEAN_MOTION_DOT,MEAN_MOTION_DDOT,TLE_LINE0,TLE_LINE1,TLE_LINE2,SEMIMAJOR_AXIS,PERIOD,APOGEE,PERIGEE,DECAYED
55673.0,STARLINK-5463,PAYLOAD,2023-11-21 13:30:06,14.98340788,0.0003036,69.9992,120.1045,276.8078,83.2736,5.3927e-06,-2.9e-07,0.0,0 STARLINK-5463,1 55673U 23021AX  23325.56257152 -.00000029  00000-0  53927-5 0  9995,2 55673  69.9992 120.1045 0003036 276.8078  83.2736 14.98340788 43597,6950.16,96.106,574.135,569.914,0.0
55673.0,STARLINK-5463,PAYLOAD,2023-11-21 19:54:38,14.98341159,0.0003038,69.9993,119.4315,277.6325,82.4489,4.3031e-06,-4.2e-07,0.0,0 STARLINK-5463,1 55673U 23021AX  23325.82960927 -.00000042  00000-0  43031-5 0  9995,2 55673  69.9993 119.4315 0003038 277.6325  82.4489 14.98341159 43639,6950.158,96.106,574.135,569.912,0.0
55673.0,STARLINK-5463,PAYLOAD,2023-11-22 13:32:06,14.98338921,0.0002959,69.9995,117.5798,275.5344,84.5478,-5.147e-05,-7.07e-06,0.0,0 STARLINK-5463,1 55673U 23021AX  23326.56396686 -.00000707  00000-0 -51470-4 0  9996,2 55673  69.9995 117.5798 0002959 275.5344  84.5478 14.98338921 43740,6950.165,96.106,574.087,569.974,0.0
55673.0,STARLINK-5463,PAYLOAD,2023-11-22 19:56:38,14.98342845,0.0002978,69.9996,116.9069,276.1832,83.8988,-1.8478e-05,-3.14e-06,0.0,0 STARLINK-5463,1 55673U 23021AX  23326.83100149 -.00000314  00000-0 -18478-4 0  9998,2 55673  69.9996 116.9069 0002978 276.1832  83.8988 14.98342845 43484,6950.153,96.106,574.088,569.948,0.0
55673.0,STARLINK-5463,PAYLOAD,2023-11-23 11:58:00,14.98325154,0.0002659,70.001,115.225,262.9335,97.1522,-0.00011768,-1.497e-05,0.0,0 STARLINK-5463,1 55673U 23021AX  23327.49861327 -.00001497  00000-0 -11768-3 0  9990,2 55673  70.0010 115.2250 0002659 262.9335  97.1522 14.98325154 43582,6950.208,96.107,573.921,570.225,0.0
55673.0,STARLINK-5463,PAYLOAD,2023-11-23 13:34:08,14.98327383,0.0002577,70.0009,115.0568,263.3355,96.7511,-0.00017114,-2.134e-05,0.0,0 STARLINK-5463,1 55673U 23021AX  23327.56537352 -.00002134  00000-0 -17114-3 0  9996,2 55673  70.0009 115.0568 0002577 263.3355  96.7511 14.98327383 43899,6950.201,96.107,573.857,570.275,0.0
55673.0,STARLINK-5463,PAYLOAD,2023-11-23 19:58:40,14.98329774,0.0002536,70.0008,114.3833,260.4867,99.6005,-0.00035648,-4.344e-05,0.0,0 STARLINK-5463,1 55673U 23021AX  23327.83241762 -.00004344  00000-0 -35648-3 0  9990,2 55673  70.0008 114.3833 0002536 260.4867  99.6005 14.98329774 43937,6950.194,96.107,573.821,570.296,0.0
55673.0,STARLINK-5463,PAYLOAD,2023-11-24 12:00:00,14.9833148,0.0003273,69.9991,112.6989,271.1914,88.887,-3.5917e-05,-5.22e-06,0.0,0 STARLINK-5463,1 55673U 23021AX  23328.50000932 -.00000522  00000-0 -35917-4 0  9991,2 55673  69.9991 112.6989 0003273 271.1914  88.8870 14.98331480 43734,6950.188,96.107,574.328,569.779,0.0
55673.0,STARLINK-5463,PAYLOAD,2023-11-24 13:36:08,14.98334493,0.0002817,70.0002,112.5311,265.4054,94.6783,-9.7017e-06,-2.09e-06,0.0,0 STARLINK-5463,1 55673U 23021AX  23328.56676675 -.00000209  00000-0 -97017-5 0  9992,2 55673  70.0002 112.5311 0002817 265.4054  94.6783 14.98334493 44042,6950.179,96.107,574.002,570.086,0.0
55673.0,STARLINK-5463,PAYLOAD,2023-11-24 20:00:40,14.98334628,0.000283,70.0001,111.8564,273.2145,86.8691,3.1838e-05,2.87e-06,0.0,0 STARLINK-5463,1 55673U 23021AX  23328.83380639  .00000287  00000-0  31838-4 0  9996,2 55673  70.0001 111.8564 0002830 273.2145  86.8691 14.98334628 44081,6950.179,96.107,574.01,570.077,0.0
55673.0,STARLINK-5463,PAYLOAD,2023-11-25 13:38:09,14.98328444,0.0002683,70.0006,110.0064,265.4138,94.6715,0.00014099,1.59e-05,0.0,0 STARLINK-5463,1 55673U 23021AX  23329.56816603  .00001590  00000-0  14099-3 0  9999,2 55673  70.0006 110.0064 0002683 265.4138  94.6715 14.98328444 44198,6950.198,96.107,573.927,570.198,0.0
55673.0,STARLINK-5463,PAYLOAD,2023-11-25 20:02:40,14.98365544,0.0002597,70.0008,109.3328,260.4974,99.5892,-0.00035926,-4.381e-05,0.0,0 STARLINK-5463,1 55673U 23021AX  23329.83519321 -.00004381  00000-0 -35926-3 0  9991,2 55673  70.0008 109.3328 0002597 260.4974  99.5892 14.98365544 44238,6950.083,96.105,573.753,570.143,0.0
55673.0,STARLINK-5463,PAYLOAD,2023-11-26 12:04:01,14.9833767,0.0002985,70.0,107.6496,265.0859,94.9959,-1.0816e-05,-2.22e-06,0.0,0 STARLINK-5463,1 55673U 23021AX  23330.50280086 -.00000222  00000-0 -10816-4 0  9992,2 55673  70.0000 107.6496 0002985 265.0859  94.9959 14.98337670 44031,6950.169,96.107,574.109,569.96,0.0
55673.0,STARLINK-5463,PAYLOAD,2023-11-26 13:40:10,14.98333214,0.0002871,69.9999,107.4814,260.9322,99.1512,7.2378e-05,7.71e-06,0.0,0 STARLINK-5463,1 55673U 23021AX  23330.56956064  .00000771  00000-0  72378-4 0  9992,2 55673  69.9999 107.4814 0002871 260.9322  99.1512 14.98333214 44346,6950.183,96.107,574.043,570.053,0.0
55673.0,STARLINK-5463,PAYLOAD,2023-11-26 18:28:34,14.98337958,0.0002679,70.0003,106.9769,256.052,104.0341,-6.8488e-06,-1.75e-06,0.0,0 STARLINK-5463,1 55673U 23021AX  23330.76983896 -.00000175  00000-0 -68488-5 0  9995,2 55673  70.0003 106.9769 0002679 256.0520 104.0341 14.98337958 44378,6950.168,96.106,573.895,570.171,0.0
55673.0,STARLINK-5463,PAYLOAD,2023-11-27 12:06:03,14.98324719,0.0003214,69.9998,105.1238,273.9069,86.1723,-0.00016279,-2.035e-05,0.0,0 STARLINK-5463,1 55673U 23021AX  23331.50421086 -.00002035  00000-0 -16279-3 0  9992,2 55673  69.9998 105.1238 0003214 273.9069  86.1723 14.98324719 44186,6950.209,96.107,574.308,569.84,0.0
55673.0,STARLINK-5463,PAYLOAD,2023-11-27 13:42:11,14.98350777,0.0002711,70.0009,104.9574,264.1205,95.9645,-0.00059225,-7.156e-05,0.0,0 STARLINK-5463,1 55673U 23021AX  23331.57096724 -.00007156  00000-0 -59225-3 0  9993,2 55673  70.0009 104.9574 0002711 264.1205  95.9645 14.98350777 44495,6950.129,96.106,573.878,570.109,0.0
55673.0,STARLINK-5463,PAYLOAD,2023-11-27 18:30:35,14.98325751,0.0003042,69.9999,104.4508,271.135,88.946,-0.00013548,-1.709e-05,0.0,0 STARLINK-5463,1 55673U 23021AX  23331.77124995 -.00001709  00000-0 -13548-3 0  9993,2 55673  69.9999 104.4508 0003042 271.1350  88.9460 14.98325751 44524,6950.206,96.107,574.185,569.957,0.0
55673.0,STARLINK-5463,PAYLOAD,2023-11-28 12:08:04,14.98329294,0.00026,70.0015,102.6019,254.6979,105.3893,-1.1228e-07,-9.4e-07,0.0,0 STARLINK-5463,1 55673U 23021AX  23332.50560431 -.00000094  00000-0 -11228-6 0  9996,2 55673  70.0015 102.6019 0002600 254.6979 105.3893 14.98329294 44334,6950.195,96.107,573.867,570.253,0.0
55673.0,STARLINK-5463,PAYLOAD,2023-11-28 13:44:12,14.98329719,0.0002692,70.0009,102.4327,257.7027,102.3831,-5.1487e-06,-1.54e-06,0.0,0 STARLINK-5463,1 55673U 23021AX  23332.57236418 -.00000154  00000-0 -51487-5 0  9995,2 55673  70.0009 102.4327 0002692 257.7027 102.3831 14.98329719 44641,6950.194,96.107,573.93,570.188,0.0
55673.0,STARLINK-5463,PAYLOAD,2023-11-28 18:32:36,14.9833192,0.0002507,70.0017,101.9291,251.9061,108.1825,3.0017e-05,2.65e-06,0.0,0 STARLINK-5463,1 55673U 23021AX  23332.77264177  .00000265  00000-0  30017-4 0  9996,2 55673  70.0017 101.9291 0002507 251.9061 108.1825 14.98331920 44670,6950.187,96.107,573.794,570.31,0.0
55673.0,STARLINK-5463,PAYLOAD,2023-11-29 12:10:05,14.98324062,0.0002761,70.0017,100.0775,260.8059,99.2788,0.0001418,1.599e-05,0.0,0 STARLINK-5463,1 55673U 23021AX  23333.50700324  .00001599  00000-0  14180-3 0  9990,2 55673  70.0017 100.0775 0002761 260.8059  99.2788 14.98324062 44481,6950.211,96.107,573.995,570.157,0.0
55673.0,STARLINK-5463,PAYLOAD,2023-11-29 13:46:13,14.98324209,0.0002821,70.0016,99.9093,261.2523,98.8317,0.00013347,1.5e-05,0.0,0 STARLINK-5463,1 55673U 23021AX  23333.57376367  .00001500  00000-0  13347-3 0  9999,2 55673  70.0016  99.9093 0002821 261.2523  98.8317 14.98324209 44797,6950.211,96.107,574.036,570.115,0.0
55673.0,STARLINK-5463,PAYLOAD,2023-11-29 18:34:36,14.98353618,0.0002447,70.0017,99.4041,251.3674,108.722,-0.00038694,-4.709e-05,0.0,0 STARLINK-5463,1 55673U 23021AX  23333.77403749 -.00004709  00000-0 -38694-3 0  9994,2 55673  70.0017  99.4041 0002447 251.3674 108.7220 14.98353618 44528,6950.12,96.105,573.686,570.284,0.0
55673.0,STARLINK-5463,PAYLOAD,2023-11-30 12:12:06,14.98331032,0.000276,70.0016,97.5531,255.0588,105.0266,-3.1832e-05,-4.73e-06,0.0,0 STARLINK-5463,1 55673U 23021AX  23334.50840482 -.00000473  00000-0 -31832-4 0  9997,2 55673  70.0016  97.5531 0002760 255.0588 105.0266 14.98331032 44631,6950.19,96.107,573.973,570.136,0.0
55673.0,STARLINK-5463,PAYLOAD,2023-12-01 18:38:38,14.98336929,0.0002689,70.0018,94.3553,255.9199,104.1661,7.0441e-05,7.48e-06,0.0,0 STARLINK-5463,1 55673U 23021AX  23335.77683738  .00000748  00000-0  70441-4 0  9998,2 55673  70.0018  94.3553 0002689 255.9199 104.1661 14.98336929 44829,6950.171,96.107,573.905,570.168,0.0
55673.0,STARLINK-5463,PAYLOAD,2023-12-02 13:52:14,14.9833941,0.0002963,70.001,92.3344,259.6507,100.4318,0.00010936,1.212e-05,0.0,0 STARLINK-5463,1 55673U 23021AX  23336.57794989  .00001212  00000-0  10936-3 0  9997,2 55673  70.0010  92.3344 0002963 259.6507 100.4318 14.98339410 45249,6950.164,96.106,574.088,569.969,0.0
55673.0,STARLINK-5463,PAYLOAD,2023-12-02 17:04:30,14.98343972,0.000278,70.0012,91.9984,251.7562,108.3294,0.00015454,1.752e-05,0.0,0 STARLINK-5463,1 55673U 23021AX  23336.71146409  .00001752  00000-0  15454-3 0  9990,2 55673  70.0012  91.9984 0002780 251.7562 108.3294 14.98343972 44963,6950.15,96.106,573.947,570.083,0.0
55673.0,STARLINK-5463,PAYLOAD,2023-12-03 12:18:10,14.98305146,0.0003125,70.0009,89.9786,272.0792,88.0009,-0.00035709,-4.348e-05,0.0,0 STARLINK-5463,1 55673U 23021AX  23337.51262691 -.00004348  00000-0 -35709-3 0  9992,2 55673  70.0009  89.9786 0003125 272.0792  88.0009 14.98305146 45084,6950.27,96.109,574.307,569.963,0.0
55673.0,STARLINK-5463,PAYLOAD,2023-12-03 13:54:19,14.98300605,0.0003119,70.0002,89.8082,274.4151,85.6652,-0.00040893,-4.965e-05,0.0,0 STARLINK-5463,1 55673U 23021AX  23337.57939244 -.00004965  00000-0 -40893-3 0  9998,2 55673  70.0002  89.8082 0003119 274.4151  85.6652 14.98300605 45399,6950.284,96.109,574.317,569.981,0.0
